MEASAT-3                
1 29648U 06056A   16312.95135735 -.00000242  00000-0  00000-0 0  9996
2 29648   0.0583 109.8021 0002780  79.7290 292.0712  1.00272470 15281
KIKU-8 (ETS-VIII)       
1 29656U 06059A   16312.63144063 -.00000238  00000-0  00000+0 0  9991
2 29656   5.1544  60.3986 0004022 171.7647 188.1462  1.00271635 36264
INSAT-4B                
1 30793U 07007A   16313.01320089 -.00000257  00000-0  00000+0 0  9997
2 30793   0.6889  88.8417 0009339 160.3164 256.7299  1.00269065 35384
SKYNET 5A               
1 30794U 07007B   16313.01496612 -.00000272  00000-0  00000+0 0  9991
2 30794   0.0703   3.6124 0004889 231.4463 273.1875  1.00272762 35472
ANIK F3                 
1 31102U 07009A   16312.56028859 -.00000001  00000-0  00000+0 0  9990
2 31102   0.0084  83.6363 0001849 148.1472 258.4368  1.00272145 35151
ASTRA 1L                
1 31306U 07016A   16313.15270045  .00000119  00000-0  00000+0 0  9995
2 31306   0.0654 307.9113 0003646 310.8020 223.2625  1.00266821 34866
GALAXY 17 (G-17)        
1 31307U 07016B   16313.45650949 -.00000175  00000-0  00000+0 0  9997
2 31307   0.0441  54.1292 0003599 165.8590 261.4610  1.00269089 34909
ZHONGXING-6B            
1 31800U 07031A   16312.94946244 -.00000362  00000-0  00000-0 0  9990
2 31800   0.0365  79.9401 0003861 148.4698 276.5278  1.00269545 34260
DIRECTV 10              
1 31862U 07032A   16312.15572383 -.00000102  00000-0  00000+0 0  9992
2 31862   0.0025 284.7738 0000232 248.0464 187.1801  1.00270624 34222
SPACEWAY 3              
1 32018U 07036A   16313.03587884 -.00000152  00000-0  00000+0 0  9995
2 32018   0.0041 146.2618 0000286   7.6454 171.7381  1.00272341 33948
BSAT-3A                 
1 32019U 07036B   16312.56362023 -.00000351  00000-0  00000-0 0  9991
2 32019   0.0338 196.1687 0005154  27.9412 135.8870  1.00273204 15321
INSAT-4CR               
1 32050U 07037A   16313.58020081 -.00000078  00000-0  00000+0 0  9990
2 32050   0.0398 272.1363 0008797 347.7503  71.2145  1.00271571 33679
OPTUS D2                
1 32252U 07044A   16313.55720572 -.00000183  00000-0  00000+0 0  9998
2 32252   0.0104 318.0832 0003552 266.8466 175.8679  1.00272353 33270
INTELSAT 11 (IS-11)     
1 32253U 07044B   16313.18546772 -.00000269  00000-0  00000+0 0  9991
2 32253   0.0120 219.5370 0002739   4.0881 207.9765  1.00270586 33358
STAR ONE C1             
1 32293U 07056A   16313.04809309 -.00000277  00000-0  00000+0 0  9990
2 32293   0.0130  98.4318 0002706 126.0055 135.5410  1.00271158 32933
SKYNET 5B               
1 32294U 07056B   16313.15286036  .00000142  00000-0  00000+0 0  9999
2 32294   0.0706 358.5930 0003843 224.3188 264.9852  1.00271036 33028
ASTRA 4A (SIRIUS 4)     
1 32299U 07057A   16313.14975883  .00000033  00000-0  00000+0 0  9998
2 32299   0.0208   3.5367 0002627 208.4853 254.4988  1.00272595 32789
HORIZONS-2              
1 32388U 07063B   16312.89841144 -.00000183  00000-0  00000-0 0  9995
2 32388   0.0090 309.7010 0002543 285.7873 220.3393  1.00271535 32684
THURAYA-3               
1 32404U 08001A   16312.89922984 -.00000305  00000-0  00000+0 0  9994
2 32404   4.1577 351.4605 0005038 230.0367 248.2733  1.00270908 32359
EXPRESS-AM33            
1 32478U 08003A   16312.95061390 -.00000281  00000-0  00000-0 0  9993
2 32478   0.0028 337.5229 0000424   8.0726 140.7153  1.00270765 32442
THOR 5                  
1 32487U 08006A   16313.16450831 -.00000009  00000-0  00000+0 0  9999
2 32487   0.0164 246.4567 0002347 334.1566 245.6602  1.00272654 32002
KIZUNA (WINDS)          
1 32500U 08007A   16312.74493888 -.00000258  00000-0  00000-0 0  9995
2 32500   0.3656  91.4570 0001913 147.7702 219.3415  1.00271599 31722
AMC-14                  
1 32708U 08011A   16313.21552769  .00000110  00000-0  00000+0 0  9992
2 32708  18.7105  66.2302 0031299   2.8051  74.3572  1.00270740 32928
DIRECTV 11              
1 32729U 08013A   16313.12688380 -.00000126  00000-0  00000+0 0  9994
2 32729   0.0033 235.8151 0000328 258.4447 220.0103  1.00272006 31755
ICO G1                  
1 32763U 08016A   16312.54775332 -.00000174  00000-0  00000+0 0  9997
2 32763   3.9309 352.3262 0003704 251.1093 268.1020  1.00271475 31285
VINASAT-1               
1 32767U 08018A   16312.50250049 -.00000328  00000-0  00000-0 0  9994
2 32767   0.0095 331.9625 0001815 258.1285 129.9312  1.00272235 31447
STAR ONE C2             
1 32768U 08018B   16312.06463702 -.00000264  00000-0  00000-0 0  9997
2 32768   0.0420 132.1565 0003269 108.9347 118.9142  1.00271814 31496
TIANLIAN 1-01           
1 32779U 08019A   16313.07913442 -.00000139  00000-0  10000-3 0  9998
2 32779   2.3515  77.1056 0036346 218.6827 220.6600  1.00273010 31293
AMOS-3                  
1 32794U 08022A   16312.26908311 -.00000034  00000-0  00000+0 0  9997
2 32794   0.0555  99.4548 0001322  75.3412 324.9907  1.00272362 31260
GALAXY 18 (G-18)        
1 32951U 08024A   16313.20881008  .00000025  00000-0  00000+0 0  9991
2 32951   0.0185 278.1776 0002956 310.1240 131.7111  1.00271805 30919
CHINASAT 9 (ZX 9)       
1 33051U 08028A   16312.95135735 -.00000249  00000-0  00000-0 0  9997
2 33051   0.0136 290.1414 0003904 298.6692 253.5008  1.00273171 30832
SKYNET 5C               
1 33055U 08030A   16313.35163054 -.00000140  00000-0  00000+0 0  9993
2 33055   0.0657 345.1734 0004671 238.6186 292.9667  1.00270108 30727
TURKSAT 3A              
1 33056U 08030B   16312.93537029  .00000146  00000-0  00000-0 0  9990
2 33056   0.0729 119.5312 0004576  93.0519 213.7363  1.00273615 17174
INTELSAT 25 (IS-25)     
1 33153U 08034A   16312.40153986 -.00000224  00000-0  00000+0 0  9997
2 33153   0.0114 272.9244 0002383 294.0457 313.1410  1.00271067 30459
BADR-6                  
1 33154U 08034B   16311.95825661  .00000145  00000-0  00000+0 0  9994
2 33154   0.0688  47.9658 0001580 188.0331 181.5885  1.00273916 30577
ECHOSTAR 11             
1 33207U 08035A   16313.17271608 -.00000057  00000-0  00000+0 0  9999
2 33207   0.0045  78.5527 0003353 166.9712 114.4792  1.00271579 30481
SUPERBIRD-C2            
1 33274U 08038A   16312.87448414 -.00000251  00000-0  00000+0 0  9999
2 33274   0.0139 292.1403 0001623 299.9052 274.2596  1.00270060 30209
AMC-21                  
1 33275U 08038B   16313.13452084  .00000036  00000-0  00000+0 0  9998
2 33275   0.0628  80.5646 0002501 152.8042  97.9378  1.00272187 30281
INMARSAT 4-F3           
1 33278U 08039A   16313.37263362 -.00000142  00000-0  00000+0 0  9996
2 33278   3.0211 359.2216 0003049 240.3101 204.6284  1.00271139 30099
NIMIQ 4                 
1 33373U 08044A   16313.37303001 -.00000221  00000-0  00000+0 0  9991
2 33373   0.0098 327.9763 0002223 271.7419 220.5807  1.00271105 29669
GALAXY 19 (G-19)        
1 33376U 08045A   16312.13951073 -.00000139  00000-0  00000-0 0  9995
2 33376   0.0145 267.9122 0003058 314.8279 137.2743  1.00271208 29776
VENESAT-1               
1 33414U 08055A   16313.02827383 -.00000238  00000-0  00000+0 0  9993
2 33414   0.0607  86.5881 0002220 172.4281  80.8287  1.00272234 29372
ASTRA 1M                
1 33436U 08057A   16312.83660323  .00000120  00000-0  00000+0 0  9995
2 33436   0.0026 294.4834 0003945 248.5604 184.8113  1.00274295 29303
CIEL-2                  
1 33453U 08063A   16313.38419612  .00000057  00000-0  00000+0 0  9994
2 33453   0.0202 299.8826 0002857 273.5543 204.0550  1.00272311 28990
EUTELSAT HOT BIRD 13C   
1 33459U 08065A   16311.83478872  .00000088  00000-0  00000-0 0  9998
2 33459   0.0692  65.5784 0003182 126.3468 168.1054  1.00273463 12196
EUTELSAT 48D            
1 33460U 08065B   16312.64575487  .00000124  00000-0  00000+0 0  9990
2 33460   0.0984  65.6563 0002472 170.7684  91.4459  1.00273783 28922
FENGYUN 2E              
1 33463U 08066A   16313.10436862 -.00000197  00000-0  00000+0 0  9990
2 33463   1.7672  64.7977 0005095 211.2497 255.6488  1.00267746 28910
EXPRESS-AM44            
1 33595U 09007A   16313.16427200 -.00000089  00000-0  00000+0 0  9994
2 33595   0.0033  43.4483 0000665 229.7956 182.7010  1.00271969 28381
NSS-9                   
1 33749U 09008A   16313.52214116  .00000072  00000-0  00000+0 0  9997
2 33749   0.0238   2.2826 0002099 222.0085 194.9010  1.00272763 28394
EUTELSAT 33E            
1 33750U 09008B   16312.79116275  .00000155  00000-0  00000-0 0  9997
2 33750   0.0366  26.6431 0006227 196.8302 141.8714  1.00272008 28278
TELSTAR 11N             
1 34111U 09009A   16312.40496169 -.00000250  00000-0  00000+0 0  9997
2 34111   0.0142 268.5985 0002353 309.6411 297.0542  1.00272670 28238
EUTELSAT 10A            
1 34710U 09016A   16313.15504933  .00000068  00000-0  00000+0 0  9998
2 34710   0.0678   3.6295 0005192 232.4013 237.5633  1.00271293 27794
SES-7 (PROTOSTAR 2)     
1 34941U 09027A   16312.88643525 -.00000345  00000-0  00000-0 0  9996
2 34941   0.0918  84.1744 0002829 172.2107 218.5257  1.00270633 27461
MEASAT-3A               
1 35362U 09032A   16312.61451097 -.00000242  00000-0  00000-0 0  9998
2 35362   0.0308 184.4584 0003401  47.7342 127.8147  1.00270437 27059
GOES 14                 
1 35491U 09033A   16313.15774124 -.00000092  00000-0  00000+0 0  9993
2 35491   0.2196 271.4045 0008925 310.7323 137.8327  1.00273205 26984
SIRIUS FM-5             
1 35493U 09034A   16313.14216088 -.00000201  00000-0  00000+0 0  9997
2 35493   0.0206 301.4521 0000421  90.3845 340.9747  1.00270418 26809
TERRESTAR-1             
1 35496U 09035A   16313.11988259 -.00000059  00000-0  00000+0 0  9995
2 35496   3.0763 340.2030 0003264 258.8541 100.8416  1.00272621 26984
ASIASAT 5               
1 35696U 09042A   16312.94770885 -.00000308  00000-0  00000-0 0  9997
2 35696   0.0024 274.6286 0000997 261.7493 312.8851  1.00269648 26494
JCSAT-RA (JCSAT-12)     
1 35755U 09044A   16312.51370115 -.00000345  00000-0  00000+0 0  9990
2 35755   0.0549  44.8486 0001433 131.4927 183.6979  1.00271273 26483
